STARLINK-35396          
1 65828U 25221F   26177.72444278  .00024095  00000+0  72242-3 0  9991
2 65828  53.1603 300.7212 0000941 106.0038 254.1069 15.34379467 42794
STARLINK-35244          
1 65829U 25221G   26177.75001156  .00050279  00000+0  16226-2 0  9991
2 65829  53.1595 304.2076 0001166  85.7569  46.0063 15.31671102  5445
STARLINK-35368          
1 65830U 25221H   26177.74172475  .00016999  00000+0  58510-3 0  9999
2 65830  53.1603 302.2437 0001362 102.3790 257.7363 15.30181465 42730
STARLINK-35337          
1 65831U 25221J   26177.62354869  .00012649  00000+0  38553-3 0  9999
2 65831  53.1594 300.8038 0001049  64.2553 295.8558 15.34346164 42783
STARLINK-35277          
1 65832U 25221K   26177.73706499  .00032076  00000+0  95672-3 0  9993
2 65832  53.1607 300.7964 0000720 127.1146 232.9922 15.34389944 42799
STARLINK-35345          
1 65833U 25221L   26177.73496772  .00029392  00000+0  87805-3 0  9990
2 65833  53.1596 300.7832 0001849  83.8803 276.2411 15.34384305 42792
STARLINK-35320          
1 65834U 25221M   26177.72905995  .00023890  00000+0  81662-3 0  9994
2 65834  53.1606 302.1634 0001338  94.7780 265.3373 15.30180182 41427
STARLINK-35349          
1 65835U 25221N   26177.73539135  .00028397  00000+0  96691-3 0  9990
2 65835  53.1602 302.2035 0000773 129.9791 230.1277 15.30210705 41423
STARLINK-35356          
1 65836U 25221P   26177.62047747  .00018332  00000+0  62980-3 0  9994
2 65836  53.1606 302.1969 0000731  92.6615 267.4470 15.30185668 41414
STARLINK-35314          
1 65837U 25221Q   26177.72023793  .00025467  00000+0  76270-3 0  9995
2 65837  53.1610 300.6948 0001523  33.4699 326.6399 15.34383717 41445
STARLINK-35324          
1 65838U 25221R   26177.73855576  .00033162  00000+0  11263-2 0  9990
2 65838  53.1617 302.2228 0000630 124.5753 235.5307 15.30213455 41425
STARLINK-35102          
1 65839U 25221S   26177.73285676  .00023140  00000+0  69425-3 0  9998
2 65839  53.1593 300.7699 0001189 114.1057 246.0070 15.34383524 41441
STARLINK-35364          
1 65840U 25221T   26177.69077257  .00024821  00000+0  74370-3 0  9991
2 65840  53.1580 300.5098 0001139 115.4736 244.6385 15.34384133 41443
STARLINK-35298          
1 65842U 25221V   26177.71181286  .00038652  00000+0  11493-2 0  9997
2 65842  53.1580 300.6396 0000995 147.3896 212.7168 15.34398617 41444
STARLINK-35301          
1 65843U 25221W   26177.70129812  .00036254  00000+0  10796-2 0  9995
2 65843  53.1584 300.5713 0000992 116.9235 243.1869 15.34381452 41442
STARLINK-35148          
1 65844U 25221X   26177.69919183  .00025313  00000+0  75795-3 0  9997
2 65844  53.1584 300.5615 0001128 102.0845 258.0284 15.34393072 41446
STARLINK-35302          
1 65845U 25221Y   26177.62985265  .00020386  00000+0  61335-3 0  9995
2 65845  53.1583 300.8365 0001399  68.7184 291.3968 15.34374225 41432
STARLINK-35290          
1 65846U 25221Z   26177.72863159  .00040902  00000+0  12135-2 0  9993
2 65846  53.1609 300.7409 0001058  87.4131 272.6993 15.34441724 41442
STARLINK-35262          
1 65847U 25221AA  26177.74383970  .00021086  00000+0  72277-3 0  9990
2 65847  53.1602 302.2537 0001036  95.4542 264.6577 15.30167031 42774
STARLINK-35308          
1 65848U 25221AB  26177.70971212  .00038579  00000+0  11475-2 0  9996
2 65848  53.1589 300.6224 0000394  62.4171 297.6871 15.34389705 42795
STARLINK-35231          
1 65849U 25221AC  26177.74699926  .00021103  00000+0  72289-3 0  9996
2 65849  53.1602 302.2713 0001025 110.1219 249.9892 15.30186482 42773
STARLINK-35252          
1 65850U 25221AD  26177.74066700  .00023109  00000+0  79009-3 0  9991
2 65850  53.1605 302.2333 0001138 110.6099 249.5024 15.30193402 42775
STARLINK-35208          
1 65854U 25223A   26177.63184656  .00022151  00000+0  66399-3 0  9990
2 65854  53.1582 146.8465 0001291  90.7677 269.3473 15.34437488 40901
STARLINK-35200          
1 65855U 25223B   26177.62534038  .00020209  00000+0  69244-3 0  9997
2 65855  53.1580 148.2181 0001142  94.2080 265.9051 15.30207122 40880
STARLINK-35459          
1 65856U 25223C   26177.23682685  .00018559  00000+0  55912-3 0  9999
2 65856  53.1575 148.6468 0001258 100.2510 259.8635 15.34395361 40844
STARLINK-35489          
1 65857U 25223D   26177.65288204  .00033114  00000+0  98527-3 0  9998
2 65857  53.1577 146.9744 0000559  72.3123 287.7941 15.34451084 40909
STARLINK-35199          
1 65858U 25223E   26177.61056485  .00023313  00000+0  79636-3 0  9999
2 65858  53.1553 148.1266 0000683  74.9886 285.1191 15.30216179 40885
STARLINK-35408          
1 65859U 25223F   26177.13811555  .00028585  00000+0  85396-3 0  9990
2 65859  53.1563 149.4506 0000875  68.6397 291.4699 15.34398385 40829
STARLINK-35303          
1 65860U 25223G   26177.19904368  .00023917  00000+0  71649-3 0  9993
2 65860  53.1581 149.1215 0001329  88.9634 271.1521 15.34411127 40839
STARLINK-35258          
1 65861U 25223H   26177.24314345  .00028947  00000+0  86428-3 0  9999
2 65861  53.1580 148.6833 0000653  73.6307 286.4767 15.34409903 40847
