OBJECT_NAME,OBJECT_ID,EPOCH,MEAN_MOTION,ECCENTRICITY,INCLINATION,RA_OF_ASC_NODE,ARG_OF_PERICENTER,MEAN_ANOMALY,EPHEMERIS_TYPE,CLASSIFICATION_TYPE,NORAD_CAT_ID,ELEMENT_SET_NO,REV_AT_EPOCH,BSTAR,MEAN_MOTION_DOT,MEAN_MOTION_DDOT
STARLINK-35396,2025-221F,2026-06-26T17:23:11.856192,15.34379467,.0000941,53.1603,300.7212,106.0038,254.1069,0,U,65828,999,4279,.72242E-3,.24095E-3,0
STARLINK-35244,2025-221G,2026-06-26T18:00:00.998784,15.31671102,.0001166,53.1595,304.2076,85.7569,46.0063,0,U,65829,999,544,.16226E-2,.50279E-3,0
STARLINK-35368,2025-221H,2026-06-26T17:48:05.018400,15.30181465,.0001362,53.1603,302.2437,102.3790,257.7363,0,U,65830,999,4273,.5851E-3,.16999E-3,0
STARLINK-35337,2025-221J,2026-06-26T14:57:54.606816,15.34346164,.0001049,53.1594,300.8038,64.2553,295.8558,0,U,65831,999,4278,.38553E-3,.12649E-3,0
STARLINK-35277,2025-221K,2026-06-26T17:41:22.415136,15.34389944,.000072,53.1607,300.7964,127.1146,232.9922,0,U,65832,999,4279,.95672E-3,.32076E-3,0
STARLINK-35345,2025-221L,2026-06-26T17:38:21.211008,15.34384305,.0001849,53.1596,300.7832,83.8803,276.2411,0,U,65833,999,4279,.87805E-3,.29392E-3,0
STARLINK-35320,2025-221M,2026-06-26T17:29:50.779680,15.30180182,.0001338,53.1606,302.1634,94.7780,265.3373,0,U,65834,999,4142,.81662E-3,.2389E-3,0
STARLINK-35349,2025-221N,2026-06-26T17:38:57.812640,15.30210705,.0000773,53.1602,302.2035,129.9791,230.1277,0,U,65835,999,4142,.96691E-3,.28397E-3,0
STARLINK-35356,2025-221P,2026-06-26T14:53:29.253408,15.30185668,.0000731,53.1606,302.1969,92.6615,267.4470,0,U,65836,999,4141,.6298E-3,.18332E-3,0
STARLINK-35314,2025-221Q,2026-06-26T17:17:08.557152,15.34383717,.0001523,53.1610,300.6948,33.4699,326.6399,0,U,65837,999,4144,.7627E-3,.25467E-3,0
STARLINK-35324,2025-221R,2026-06-26T17:43:31.217664,15.30213455,.000063,53.1617,302.2228,124.5753,235.5307,0,U,65838,999,4142,.11263E-2,.33162E-3,0
STARLINK-35102,2025-221S,2026-06-26T17:35:18.824064,15.34383524,.0001189,53.1593,300.7699,114.1057,246.0070,0,U,65839,999,4144,.69425E-3,.2314E-3,0
STARLINK-35364,2025-221T,2026-06-26T16:34:42.750048,15.34384133,.0001139,53.1580,300.5098,115.4736,244.6385,0,U,65840,999,4144,.7437E-3,.24821E-3,0
STARLINK-35298,2025-221V,2026-06-26T17:05:00.631104,15.34398617,.0000995,53.1580,300.6396,147.3896,212.7168,0,U,65842,999,4144,.11493E-2,.38652E-3,0
STARLINK-35301,2025-221W,2026-06-26T16:49:52.157568,15.34381452,.0000992,53.1584,300.5713,116.9235,243.1869,0,U,65843,999,4144,.10796E-2,.36254E-3,0
STARLINK-35148,2025-221X,2026-06-26T16:46:50.174112,15.34393072,.0001128,53.1584,300.5615,102.0845,258.0284,0,U,65844,999,4144,.75795E-3,.25313E-3,0
STARLINK-35302,2025-221Y,2026-06-26T15:06:59.268960,15.34374225,.0001399,53.1583,300.8365,68.7184,291.3968,0,U,65845,999,4143,.61335E-3,.20386E-3,0
STARLINK-35290,2025-221Z,2026-06-26T17:29:13.769376,15.34441724,.0001058,53.1609,300.7409,87.4131,272.6993,0,U,65846,999,4144,.12135E-2,.40902E-3,0
STARLINK-35262,2025-221AA,2026-06-26T17:51:07.750080,15.30167031,.0001036,53.1602,302.2537,95.4542,264.6577,0,U,65847,999,4277,.72277E-3,.21086E-3,0
STARLINK-35308,2025-221AB,2026-06-26T17:01:59.127168,15.34389705,.0000394,53.1589,300.6224,62.4171,297.6871,0,U,65848,999,4279,.11475E-2,.38579E-3,0
STARLINK-35231,2025-221AC,2026-06-26T17:55:40.736064,15.30186482,.0001025,53.1602,302.2713,110.1219,249.9892,0,U,65849,999,4277,.72289E-3,.21103E-3,0
STARLINK-35252,2025-221AD,2026-06-26T17:46:33.628800,15.30193402,.0001138,53.1605,302.2333,110.6099,249.5024,0,U,65850,999,4277,.79009E-3,.23109E-3,0
STARLINK-35208,2025-223A,2026-06-26T15:09:51.542784,15.34437488,.0001291,53.1582,146.8465,90.7677,269.3473,0,U,65854,999,4090,.66399E-3,.22151E-3,0
STARLINK-35200,2025-223B,2026-06-26T15:00:29.408832,15.30207122,.0001142,53.1580,148.2181,94.2080,265.9051,0,U,65855,999,4088,.69244E-3,.20209E-3,0
STARLINK-35459,2025-223C,2026-06-26T05:41:01.839840,15.34395361,.0001258,53.1575,148.6468,100.2510,259.8635,0,U,65856,999,4084,.55912E-3,.18559E-3,0
STARLINK-35489,2025-223D,2026-06-26T15:40:09.008256,15.34451084,.0000559,53.1577,146.9744,72.3123,287.7941,0,U,65857,999,4090,.98527E-3,.33114E-3,0
STARLINK-35199,2025-223E,2026-06-26T14:39:12.803040,15.30216179,.0000683,53.1553,148.1266,74.9886,285.1191,0,U,65858,999,4088,.79636E-3,.23313E-3,0
STARLINK-35408,2025-223F,2026-06-26T03:18:53.183520,15.34398385,.00008755,53.1563,149.4506,68.6397,291.4699,0,U,65859,999,4082,.85395849E-3,.28585E-3,0
STARLINK-35303,2025-223G,2026-06-26T04:46:37.373952,15.34411127,.0001329,53.1581,149.1215,88.9634,271.1521,0,U,65860,999,4083,.71648564E-3,.23917E-3,0
STARLINK-35258,2025-223H,2026-06-26T05:50:07.594080,15.34409903,.0000653,53.1580,148.6833,73.6307,286.4767,0,U,65861,999,4084,.86428E-3,.28947E-3,0
